     2.100          NAVIGATION                              RINEX VERSION / TYPE
fic2rin                                 08/15/2015 00:25:59 PGM / RUN BY / DATE
                                                            END OF HEADER
27 15  8 14 10  0  0.0  .117896124721D-04  .284217094304D-11  .000000000000D+00
     .105000000000D+03 -.485000000000D+02  .461376361035D-08 -.941633488414D+00
    -.256486237049D-05  .262715283316D-02  .199675559998D-05  .515369540215D+04
     .468000000000D+06  .117346644402D-06  .191911266396D+01 -.316649675369D-07
     .967953997432D+00  .347468750000D+03  .315920699479D+00 -.837034865862D-08
    -.332871008271D-09  .100000000000D+01  .185700000000D+04  .000000000000D+00
     .340000000000D+01  .000000000000D+00  .139698386192D-08  .105000000000D+03
     .460806000000D+06  .400000000000D+01
28 15  8 14 10  0  0.0  .460471957922D-03  .261479726760D-11  .000000000000D+00
     .490000000000D+02  .978437500000D+02  .418195990970D-08 -.773968425406D-01
     .527314841747D-05  .195945729502D-01  .556930899620D-05  .515369731522D+04
     .468000000000D+06 -.232830643654D-06  .946704140953D+00  .875443220139D-07
     .989098618899D+00  .290781250000D+03 -.165910259125D+01 -.835391940285D-08
     .256796410887D-09  .100000000000D+01  .185700000000D+04  .000000000000D+00
     .240000000000D+01  .000000000000D+00 -.111758708954D-07  .490000000000D+02
     .460806000000D+06  .400000000000D+01
29 15  8 14 10  0  0.0  .628036446869D-03  .216004991671D-11  .000000000000D+00
     .860000000000D+02 -.635312500000D+02  .453340312015D-08  .155300611358D+01
    -.330433249474D-05  .985241029412D-03  .235810875893D-05  .515371244240D+04
     .468000000000D+06  .186264514923D-08  .197681922602D+01  .782310962677D-07
     .973942396999D+00  .339656250000D+03 -.451934811550D+00 -.830713173967D-08
    -.357872049664D-09  .100000000000D+01  .185700000000D+04  .000000000000D+00
     .240000000000D+01  .000000000000D+00 -.102445483208D-07  .860000000000D+02
     .460806000000D+06  .400000000000D+01
30 15  8 14 10  0  0.0  .575371086597D-05  .716227077646D-11  .000000000000D+00
     .740000000000D+02  .256562500000D+02  .452447417680D-08  .260041526320D+01
     .140629708767D-05  .168408243917D-02  .117551535368D-04  .515371569633D+04
     .468000000000D+06 -.409781932831D-07 -.988178253248D-01  .428408384323D-07
     .955562611704D+00  .152281250000D+03  .304737323622D+01 -.788675708652D-08
    -.209294432239D-09  .100000000000D+01  .185700000000D+04  .000000000000D+00
     .240000000000D+01  .000000000000D+00  .325962901115D-08  .740000000000D+02
     .460806000000D+06  .400000000000D+01
31 15  8 14 10  0  0.0  .306453090161D-03 -.136424205266D-11  .000000000000D+00
     .170000000000D+02  .831250000000D+01  .406052628008D-08  .253766745178D+01
     .670552253723D-06  .804432842415D-02  .125002115965D-04  .515357592010D+04
     .468000000000D+06  .223517417908D-07 -.138924012663D+00  .184401869774D-06
     .974667470401D+00  .144218750000D+03 -.523313582157D+00 -.762174604774D-08
    -.355014787791D-09  .100000000000D+01  .185700000000D+04  .000000000000D+00
     .240000000000D+01  .000000000000D+00 -.135041773319D-07  .170000000000D+02
     .460806000000D+06  .400000000000D+01
24 15  8 14  9 59 44.0 -.299979001284D-05 -.568434188608D-12  .000000000000D+00
     .500000000000D+01  .185625000000D+02  .451804533758D-08 -.279194830865D+01
     .873580574989D-06  .330549723003D-02  .121593475342D-04  .515366734314D+04
     .467984000000D+06 -.502914190292D-07 -.189198400827D+00 -.931322574615D-07
     .952931809549D+00  .141656250000D+03  .330343899944D+00 -.786247036059D-08
    -.338585532018D-09  .100000000000D+01  .185700000000D+04  .000000000000D+00
     .240000000000D+01  .000000000000D+00  .232830643654D-08  .500000000000D+01
     .460986000000D+06  .400000000000D+01
 4 15  8 14  9 59 44.0 -.101118348539D-04 -.363797880709D-11  .000000000000D+00
     .600000000000D+01 -.965000000000D+02  .446197157331D-08  .302732173786D+01
    -.490620732307D-05  .117115152534D-01  .105705112219D-04  .515367013741D+04
     .467984000000D+06  .614672899246D-07  .295233650992D+01 -.707805156708D-07
     .940871416351D+00  .163281250000D+03  .108343441287D+01 -.780175354578D-08
    -.685742849656D-10  .100000000000D+01  .185700000000D+04  .000000000000D+00
     .240000000000D+01  .000000000000D+00 -.651925802231D-08  .600000000000D+01
     .461856000000D+06  .400000000000D+01
22 15  8 14  9 59 44.0  .381191726774D-03  .363797880709D-11  .000000000000D+00
     .300000000000D+01  .409687500000D+02  .544201239595D-08  .154250092518D+00
     .216439366341D-05  .803371588700D-02  .829249620438D-05  .515368295479D+04
     .467984000000D+06 -.109896063805D-06 -.228838932709D+01  .113621354103D-06
     .922873490711D+00  .201531250000D+03 -.203715417204D+01 -.855178478759D-08
     .619668668830D-09  .100000000000D+01  .185700000000D+04  .000000000000D+00
     .240000000000D+01  .000000000000D+00 -.176951289177D-07  .300000000000D+01
     .464286000000D+06  .400000000000D+01
16 15  8 14  9 59 44.0 -.976012088358D-04  .409272615798D-11  .000000000000D+00
     .500000000000D+01  .985937500000D+02  .405624038726D-08  .595910360801D-01
     .514276325703D-05  .808535353281D-02  .602938234806D-05  .515360295486D+04
     .467984000000D+06  .353902578354D-07  .941434942636D+00  .428408384323D-07
     .990470871167D+00  .275343750000D+03  .323083417035D+00 -.802319134098D-08
     .224652214809D-09  .100000000000D+01  .185700000000D+04  .000000000000D+00
     .240000000000D+01  .000000000000D+00 -.102445483208D-07  .500000000000D+01
     .465786000000D+06  .400000000000D+01
16 15  8 14 11 59 44.0 -.975714065135D-04  .409272615798D-11  .000000000000D+00
     .840000000000D+02  .107250000000D+03  .408195574413D-08  .110969572783D+01
     .581704080105D-05  .808637472801D-02  .634230673313D-05  .515360555458D+04
     .475184000000D+06  .689178705215D-07  .941376989136D+00  .521540641785D-07
     .990472499395D+00  .269875000000D+03  .323199208464D+00 -.803962059675D-08
     .250010413937D-09  .100000000000D+01  .185700000000D+04  .000000000000D+00
     .240000000000D+01  .000000000000D+00 -.102445483208D-07  .840000000000D+02
     .468006000000D+06  .400000000000D+01
22 15  8 14 11 59 44.0  .381217803806D-03  .363797880709D-11  .000000000000D+00
     .700000000000D+01  .427812500000D+02  .541951145869D-08  .120442676130D+01
     .223889946938D-05  .803409214132D-02  .839680433273D-05  .515368354988D+04
     .475184000000D+06 -.108033418655D-06 -.228845049901D+01 -.931322574615D-08
     .922877529828D+00  .198093750000D+03 -.203714976134D+01 -.855249910306D-08
     .536450916763D-09  .100000000000D+01  .185700000000D+04  .000000000000D+00
     .240000000000D+01  .000000000000D+00 -.176951289177D-07  .700000000000D+01
     .468006000000D+06  .400000000000D+01
 1 15  8 14 12  0  0.0 -.127032399178D-05  .682121026330D-12  .000000000000D+00
     .530000000000D+02 -.915000000000D+02  .403766818509D-08 -.198219193896D+01
    -.465102493763D-05  .459743966348D-02  .108256936073D-04  .515366926765D+04
     .475200000000D+06 -.800937414169D-07  .297638002938D+01 -.465661287308D-07
     .963147691264D+00  .173093750000D+03  .440873421702D+00 -.770639243075D-08
    -.989326923723D-10  .100000000000D+01  .185700000000D+04  .000000000000D+00
     .240000000000D+01  .000000000000D+00  .512227416039D-08  .530000000000D+02
     .468006000000D+06  .400000000000D+01
 2 15  8 14 12  0  0.0  .583956949413D-03  .204636307899D-11  .000000000000D+00
     .590000000000D+02 -.727187500000D+02  .465412243431D-08 -.145296769231D+01
    -.386871397495D-05  .147084580967D-01  .106021761894D-04  .515361297417D+04
     .475200000000D+06  .432133674622D-06  .293711523791D+01  .558793544769D-08
     .941786898782D+00  .164968750000D+03 -.224083496446D+01 -.794925969000D-08
    -.192150860997D-09  .100000000000D+01  .185700000000D+04  .000000000000D+00
     .240000000000D+01  .000000000000D+00 -.204890966415D-07  .590000000000D+02
     .468006000000D+06  .400000000000D+01
 3 15  8 14 12  0  0.0  .159223563969D-04  .295585778076D-11  .000000000000D+00
     .410000000000D+02  .403125000000D+02  .446947188573D-08 -.944050997113D-01
     .217370688915D-05  .699022551998D-03  .858679413795D-05  .515362458420D+04
     .475200000000D+06  .558793544769D-07 -.226650732762D+01  .167638063431D-07
     .959256896786D+00  .213218750000D+03 -.253000459180D+01 -.800961934708D-08
     .631097716324D-09  .100000000000D+01  .185700000000D+04  .000000000000D+00
     .240000000000D+01  .000000000000D+00  .186264514923D-08  .410000000000D+02
     .468006000000D+06  .400000000000D+01
 4 15  8 14 12  0  0.0 -.101374462247D-04 -.363797880709D-11  .000000000000D+00
     .800000000000D+01 -.985312500000D+02  .447590072495D-08 -.220333489692D+01
    -.501051545143D-05  .117115427274D-01  .106301158667D-04  .515367018509D+04
     .475200000000D+06  .113621354103D-06  .295228044505D+01 -.128522515297D-06
     .940870825332D+00  .162562500000D+03  .108342219896D+01 -.781532553968D-08
    -.117147736816D-09  .100000000000D+01  .185700000000D+04  .000000000000D+00
     .240000000000D+01  .000000000000D+00 -.651925802231D-08  .800000000000D+01
     .468006000000D+06  .400000000000D+01
 5 15  8 14 12  0  0.0 -.206687953323D-03  .420641299570D-11  .000000000000D+00
     .450000000000D+02  .502500000000D+02  .479734268572D-08  .103917234591D+01
     .275112688541D-05  .428716687020D-02  .803731381893D-05  .515361952400D+04
     .475200000000D+06 -.968575477600D-07 -.227459238430D+01  .894069671631D-07
     .946453191986D+00  .216687500000D+03  .387875533579D+00 -.818141221723D-08
     .531093550750D-09  .100000000000D+01  .185700000000D+04  .000000000000D+00
     .240000000000D+01  .000000000000D+00 -.107102096081D-07  .450000000000D+02
     .468006000000D+06  .400000000000D+01
